NORAD_CAT_ID,OBJECT_NAME,OBJECT_TYPE,EPOCH,MEAN_MOTION,ECCENTRICITY,INCLINATION,RA_OF_ASC_NODE,ARG_OF_PERICENTER,MEAN_ANOMALY,BSTAR,MEAN_MOTION_DOT,MEAN_MOTION_DDOT,TLE_LINE0,TLE_LINE1,TLE_LINE2,SEMIMAJOR_AXIS,PERIOD,APOGEE,PERIGEE,DECAYED
56466.0,STARLINK-6053,PAYLOAD,2023-06-05 09:27:21,15.69921906,0.0003476,69.9971,173.1375,265.5289,94.551,1.3821e-05,1.449e-05,0.0,0 STARLINK-6053,1 56466U 23064U   23156.39400371  .00001449  00000-0  13821-4 0  9993,2 56466  69.9971 173.1375 0003476 265.5289  94.5510 15.69921906  4404,6737.257,91.724,361.464,356.781,0.0
56466.0,STARLINK-6053,PAYLOAD,2023-06-05 12:30:52,15.69922081,0.0003492,69.9971,172.7793,265.8052,94.2744,1.3095e-05,1.362e-05,0.0,0 STARLINK-6053,1 56466U 23064U   23156.52143721  .00001362  00000-0  13095-4 0  9998,2 56466  69.9971 172.7793 0003492 265.8052  94.2744 15.69922081  4076,6737.257,91.724,361.475,356.769,0.0
56466.0,STARLINK-6053,PAYLOAD,2023-06-05 18:37:52,15.69927689,0.0003549,69.9967,172.0636,269.5068,90.5721,-6.44e-06,-9.87e-06,0.0,0 STARLINK-6053,1 56466U 23064U   23156.77630444 -.00000987  00000-0 -64400-5 0  9999,2 56466  69.9967 172.0636 0003549 269.5068  90.5721 15.69927689  4119,6737.241,91.724,361.497,356.715,0.0
56466.0,STARLINK-6053,PAYLOAD,2023-06-06 09:55:23,15.69925085,0.0003456,69.9977,170.2726,265.3522,94.7279,-2.919e-08,-2.16e-06,0.0,0 STARLINK-6053,1 56466U 23064U   23157.41346944 -.00000216  00000-0 -29190-7 0  9994,2 56466  69.9977 170.2726 0003456 265.3522  94.7279 15.69925085  4219,6737.248,91.724,361.442,356.785,0.0
56466.0,STARLINK-6053,PAYLOAD,2023-06-06 12:58:53,15.69927418,0.0003477,69.9971,169.9143,266.8094,93.2704,5.7355e-06,4.77e-06,0.0,0 STARLINK-6053,1 56466U 23064U   23157.54090011  .00000477  00000-0  57355-5 0  9998,2 56466  69.9971 169.9143 0003477 266.8094  93.2704 15.69927418  4583,6737.242,91.724,361.449,356.764,0.0
56466.0,STARLINK-6053,PAYLOAD,2023-06-07 04:16:25,15.699149,0.000345,69.9982,168.1218,264.8111,95.2692,5.3481e-06,4.3e-06,0.0,0 STARLINK-6053,1 56466U 23064U   23158.17807526  .00000430  00000-0  53481-5 0  9990,2 56466  69.9982 168.1218 0003450 264.8111  95.2692 15.69914900  4689,6737.277,91.725,361.467,356.818,0.0
56466.0,STARLINK-6053,PAYLOAD,2023-06-07 13:26:56,15.69919367,0.0003239,69.9977,167.046,259.1199,100.9633,5.2218e-06,4.15e-06,0.0,0 STARLINK-6053,1 56466U 23064U   23158.56037381  .00000415  00000-0  52218-5 0  9997,2 56466  69.9977 167.0460 0003239 259.1199 100.9633 15.69919367  4397,6737.265,91.724,361.312,356.947,0.0
56466.0,STARLINK-6053,PAYLOAD,2023-06-07 18:02:11,15.69924843,0.0003373,69.9979,166.508,263.9839,96.0972,4.1495e-06,2.86e-06,0.0,0 STARLINK-6053,1 56466U 23064U   23158.75152088  .00000286  00000-0  41495-5 0  9991,2 56466  69.9979 166.5080 0003373 263.9839  96.0972 15.69924843  4772,6737.249,91.724,361.386,356.842,0.0
56466.0,STARLINK-6053,PAYLOAD,2023-06-08 10:50:56,15.70498653,0.0007815,69.9987,164.5358,32.1453,328.0218,0.00069367,0.000862,0.0,0 STARLINK-6053,1 56466U 23064U   23159.45204732  .00086200  00000-0  69367-3 0  9999,2 56466  69.9987 164.5358 0007815  32.1453 328.0218 15.70498653  4880,6735.608,91.691,362.737,352.209,0.0
56466.0,STARLINK-6053,PAYLOAD,2023-06-08 22:00:00,15.68221888,0.0003508,70.0003,163.2375,267.4066,193.1698,-0.0086502,-0.00874229,0.0,0 STARLINK-6053,1 56466U 23064U   23159.91667824 -.00874229  00000-0 -86502-2 0  9992,2 56466  70.0003 163.2375 0003508 267.4066 193.1698 15.68221888  4968,6742.126,91.824,366.356,361.625,0.0
56466.0,STARLINK-6053,PAYLOAD,2023-06-09 14:00:01,15.66954515,0.0003625,70.0,161.3697,269.7366,351.8669,-0.009974,-0.00963657,0.0,0 STARLINK-6053,1 56466U 23064U   23160.58334491 -.00963657  00000-0 -99740-2 0  9990,2 56466  70.0000 161.3697 0003625 269.7366 351.8669 15.66954515  5060,6745.76,91.898,370.071,365.18,0.0
56466.0,STARLINK-6053,PAYLOAD,2023-06-09 22:00:00,15.66259894,0.0003332,70.0002,160.4372,264.963,75.9917,-0.0092536,-0.00864287,0.0,0 STARLINK-6053,1 56466U 23064U   23160.91667824 -.00864287  00000-0 -92536-2 0  9991,2 56466  70.0002 160.4372 0003332 264.9630  75.9917 15.66259894  1309,6747.755,91.939,371.868,367.371,0.0
56466.0,STARLINK-6053,PAYLOAD,2023-06-10 06:00:02,15.65604137,0.0003576,70.0003,159.5056,272.1895,147.4042,-0.0097168,-0.00895266,0.0,0 STARLINK-6053,1 56466U 23064U   23161.25002315 -.00895266  00000-0 -97168-2 0  9994,2 56466  70.0003 159.5056 0003576 272.1895 147.4042 15.65604137  5167,6749.639,91.977,373.917,369.09,0.0
56466.0,STARLINK-6053,PAYLOAD,2023-06-10 14:00:01,15.64998159,0.0003402,70.0001,158.5748,273.3468,223.9427,-0.010803,-0.00964413,0.0,0 STARLINK-6053,1 56466U 23064U   23161.58334491 -.00964413  00000-0 -10803-1 0  9994,2 56466  70.0001 158.5748 0003402 273.3468 223.9427 15.64998159  1307,6751.381,92.013,375.543,370.949,0.0
56466.0,STARLINK-6053,PAYLOAD,2023-06-10 22:00:00,15.64318252,0.0003412,70.0004,157.6452,264.4401,309.8506,-0.010314,-0.00902011,0.0,0 STARLINK-6053,1 56466U 23064U   23161.91667824 -.00902011  00000-0 -10314-1 0  9993,2 56466  70.0004 157.6452 0003412 264.4401 309.8506 15.64318252  5273,6753.337,92.053,377.506,372.898,0.0
56466.0,STARLINK-6053,PAYLOAD,2023-06-11 14:00:01,15.63045199,0.0003537,69.9999,155.7883,272.8509,93.0837,-0.011771,-0.00971813,0.0,0 STARLINK-6053,1 56466U 23064U   23162.58334491 -.00971813  00000-0 -11771-1 0  9992,2 56466  69.9999 155.7883 0003537 272.8509  93.0837 15.63045199  5376,6757.004,92.128,381.259,376.479,0.0
56466.0,STARLINK-6053,PAYLOAD,2023-06-11 20:00:01,15.62485401,0.0003528,69.9999,155.0929,266.7452,65.2696,-0.010285,-0.00830238,0.0,0 STARLINK-6053,1 56466U 23064U   23162.83334491 -.00830238  00000-0 -10285-1 0  9994,2 56466  69.9999 155.0929 0003528 266.7452  65.2696 15.62485401  5411,6758.617,92.161,382.867,378.098,0.0
56466.0,STARLINK-6053,PAYLOAD,2023-06-11 22:00:00,15.62365692,0.0003379,70.0,154.8612,267.8523,172.7361,-0.011252,-0.0091035,0.0,0 STARLINK-6053,1 56466U 23064U   23162.91667824 -.00910350  00000-0 -11252-1 0  9991,2 56466  70.0000 154.8612 0003379 267.8523 172.7361 15.62365692  1304,6758.963,92.168,383.111,378.544,0.0
56466.0,STARLINK-6053,PAYLOAD,2023-06-12 06:00:00,15.61676471,0.0003234,69.9999,153.9349,272.3335,242.1416,-0.010961,-0.0086717,0.0,0 STARLINK-6053,1 56466U 23064U   23163.25001157 -.00867170  00000-0 -10961-1 0  9997,2 56466  69.9999 153.9349 0003234 272.3335 242.1416 15.61676471  5482,6760.951,92.209,385.003,380.63,0.0
56466.0,STARLINK-6053,PAYLOAD,2023-06-12 14:00:01,15.61078567,0.0003151,69.9997,153.0095,270.7513,316.8566,-0.012512,-0.00957933,0.0,0 STARLINK-6053,1 56466U 23064U   23163.58335648 -.00957933  00000-0 -12512-1 0  9999,2 56466  69.9997 153.0095 0003151 270.7513 316.8566 15.61078567  1301,6762.677,92.244,386.673,382.411,0.0
56466.0,STARLINK-6053,PAYLOAD,2023-06-12 20:00:01,15.60545037,0.0003197,69.9998,152.3163,265.4734,286.3775,-0.011386,-0.0086262,0.0,0 STARLINK-6053,1 56466U 23064U   23163.83334491 -.00862620  00000-0 -11386-1 0  9998,2 56466  69.9998 152.3163 0003197 265.4734 286.3775 15.60545037  5572,6764.219,92.275,388.246,383.921,0.0
56466.0,STARLINK-6053,PAYLOAD,2023-06-12 22:00:00,15.60418321,0.0003362,69.9999,152.0854,264.1538,35.689,-0.012337,-0.00924158,0.0,0 STARLINK-6053,1 56466U 23064U   23163.91667824 -.00924158  00000-0 -12337-1 0  9998,2 56466  69.9999 152.0854 0003362 264.1538  35.6890 15.60418321  1304,6764.585,92.283,388.724,384.176,0.0
56466.0,STARLINK-6053,PAYLOAD,2023-06-13 06:00:02,15.59723234,0.0003314,69.9997,151.1619,271.3151,100.1352,-0.011905,-0.0087302,0.0,0 STARLINK-6053,1 56466U 23064U   23164.25002315 -.00873020  00000-0 -11905-1 0  9995,2 56466  69.9997 151.1619 0003314 271.3151 100.1352 15.59723234  5630,6766.594,92.324,390.702,386.217,0.0
56466.0,STARLINK-6053,PAYLOAD,2023-06-13 14:00:01,15.59113138,0.0003236,69.9992,150.2392,272.1593,169.9496,-0.013242,-0.00941782,0.0,0 STARLINK-6053,1 56466U 23064U   23164.58334491 -.00941782  00000-0 -13242-1 0  9991,2 56466  69.9992 150.2392 0003236 272.1593 169.9496 15.59113138  1303,6768.36,92.36,392.415,388.034,0.0
56466.0,STARLINK-6053,PAYLOAD,2023-06-13 20:00:01,15.58585044,0.0003282,69.9992,149.5478,266.93,137.7274,-0.012257,-0.00861726,0.0,0 STARLINK-6053,1 56466U 23064U   23164.83334491 -.00861726  00000-0 -12257-1 0  9993,2 56466  69.9992 149.5478 0003282 266.9300 137.7274 15.58585044  5722,6769.888,92.391,393.975,389.531,0.0
56466.0,STARLINK-6053,PAYLOAD,2023-06-13 22:00:00,15.58458575,0.0003144,69.9994,149.3175,265.6615,246.3991,-0.013211,-0.00918725,0.0,0 STARLINK-6053,1 56466U 23064U   23164.91667824 -.00918725  00000-0 -13211-1 0  9994,2 56466  69.9994 149.3175 0003144 265.6615 246.3991 15.58458575  1309,6770.255,92.399,394.248,389.991,0.0
56466.0,STARLINK-6053,PAYLOAD,2023-06-14 06:00:00,15.5776256,0.0003194,69.9994,148.3965,271.7491,309.5077,-0.012678,-0.00863831,0.0,0 STARLINK-6053,1 56466U 23064U   23165.25001157 -.00863831  00000-0 -12678-1 0  9996,2 56466  69.9994 148.3965 0003194 271.7491 309.5077 15.57762560  5795,6772.271,92.44,396.299,391.973,0.0
56466.0,STARLINK-6053,PAYLOAD,2023-06-14 14:00:01,15.57157852,0.0003238,69.9991,147.4765,271.3973,18.2367,-0.014352,-0.00947431,0.0,0 STARLINK-6053,1 56466U 23064U   23165.58334491 -.00947431  00000-0 -14352-1 0  9992,2 56466  69.9991 147.4765 0003238 271.3973  18.2367 15.57157852  1301,6774.024,92.476,398.083,393.696,0.0
56466.0,STARLINK-6053,PAYLOAD,2023-06-14 20:00:01,15.56629639,0.0003287,69.9992,146.7873,265.8276,344.5927,-0.013194,-0.00861817,0.0,0 STARLINK-6053,1 56466U 23064U   23165.83334491 -.00861817  00000-0 -13194-1 0  9996,2 56466  69.9992 146.7873 0003287 265.8276 344.5927 15.56629639  5882,6775.557,92.508,399.649,395.194,0.0
56466.0,STARLINK-6053,PAYLOAD,2023-06-14 22:00:00,15.5650455,0.000342,69.9993,146.5578,267.8048,89.4317,-0.014252,-0.0092081,0.0,0 STARLINK-6053,1 56466U 23064U   23165.91667824 -.00920810  00000-0 -14252-1 0  9999,2 56466  69.9993 146.5578 0003420 267.8048  89.4317 15.56504550  1306,6775.92,92.515,400.102,395.467,0.0
